STARLINK-37083          
1 68227U 26053W   26099.83335647 -.02001593  00000+0 -17763-1 0  9992
2 68227  97.2843 335.7302 0001767  92.6193  58.9228 15.71512376  5023
STARLINK-37050          
1 68228U 26053X   26099.83335647 -.02005195  00000+0 -18555-1 0  9995
2 68228  97.2844 335.7310 0001718  88.4827  63.2870 15.70525095  5008
STARLINK-37081          
1 68229U 26053Y   26099.89973440  .00265016  00000+0  17167-2 0  9996
2 68229  97.2855 335.7278 0001826 108.2609 251.8855 15.75276026  4989
STARLINK-37100          
1 68230U 26053Z   26099.83335647 -.02001460  00000+0 -19183-1 0  9997
2 68230  97.2843 335.7291 0001720  82.3870  65.9008 15.69678318  5021
STARLINK-37104          
1 68231U 26053AA  26099.83335647 -.02000917  00000+0 -19199-1 0  9991
2 68231  97.2844 335.7308 0001826  90.6591  61.6437 15.69649419  5020
STARLINK-37027          
1 68232U 26054A   26099.64642581  .00128682  00000+0  82979-3 0  9994
2 68232  53.1591 157.9994 0001148  77.7267 282.3881 15.75269698  3666
STARLINK-37132          
1 68233U 26054B   26099.85860127  .00306703  00000+0  14968-2 0  9990
2 68233  53.1572 156.4606 0002269  77.2589 282.8687 15.80960932  3706
STARLINK-37101          
1 68234U 26054C   26099.63767017  .00174586  00000+0  11168-2 0  9992
2 68234  53.1577 157.9404 0001370  81.6839 278.4336 15.75298240  3660
STARLINK-36963          
1 68235U 26054D   26099.64220822  .00099104  00000+0  64224-3 0  9996
2 68235  53.1588 157.9708 0001023  79.1794 280.9342 15.75270504  3665
STARLINK-37127          
1 68236U 26054E   26099.65128460  .00145737  00000+0  93645-3 0  9996
2 68236  53.1584 158.0309 0001083  73.6440 286.4699 15.75291101  3666
STARLINK-37095          
1 68237U 26054F   26099.64674023  .00138370  00000+0  89154-3 0  9992
2 68237  53.1594 158.0014 0001802  89.2084 270.9143 15.75253519  3660
STARLINK-37097          
1 68238U 26054G   26099.83335647 -.00040764  00000+0 -26301-3 0  9996
2 68238  53.1589 156.6477 0000878  87.2372  99.6009 15.75241566  4928
STARLINK-37096          
1 68239U 26054H   26099.87297715  .00281544  00000+0  17749-2 0  9990
2 68239  53.1586 156.5562 0002372  65.9604 294.1664 15.75309510  3700
STARLINK-37092          
1 68240U 26054J   26099.62826384  .00161257  00000+0  10338-2 0  9990
2 68240  53.1566 157.8772 0001400  69.8413 290.2758 15.75290859  3660
STARLINK-37094          
1 68241U 26054K   26099.66293211  .00212697  00000+0  10506-2 0  9994
2 68241  53.1571 157.3709 0000796  93.7195 266.3918 15.80961119  3675
STARLINK-36356          
1 68242U 26054L   26099.63279986  .00172096  00000+0  11011-2 0  9995
2 68242  53.1568 157.9069 0001083 112.4799 247.6336 15.75302971  3660
STARLINK-36345          
1 68243U 26054M   26099.64188068  .00137595  00000+0  88567-3 0  9993
2 68243  53.1588 157.9684 0001300  80.0595 280.0572 15.75279275  3665
