[{"OBJECT_NAME":"STARLINK-37083","OBJECT_ID":"2026-053W","EPOCH":"2026-04-09T20:00:01.999008","MEAN_MOTION":15.71512376,"ECCENTRICITY":0.0001767,"INCLINATION":97.2843,"RA_OF_ASC_NODE":335.7302,"ARG_OF_PERICENTER":92.6193,"MEAN_ANOMALY":58.9228,"EPHEMERIS_TYPE":0,"CLASSIFICATION_TYPE":"U","NORAD_CAT_ID":68227,"ELEMENT_SET_NO":999,"REV_AT_EPOCH":502,"BSTAR":-0.017763,"MEAN_MOTION_DOT":-0.02001593,"MEAN_MOTION_DDOT":0},{"OBJECT_NAME":"STARLINK-37050","OBJECT_ID":"2026-053X","EPOCH":"2026-04-09T20:00:01.999008","MEAN_MOTION":15.70525095,"ECCENTRICITY":0.0001718,"INCLINATION":97.2844,"RA_OF_ASC_NODE":335.731,"ARG_OF_PERICENTER":88.4827,"MEAN_ANOMALY":63.287,"EPHEMERIS_TYPE":0,"CLASSIFICATION_TYPE":"U","NORAD_CAT_ID":68228,"ELEMENT_SET_NO":999,"REV_AT_EPOCH":500,"BSTAR":-0.018555,"MEAN_MOTION_DOT":-0.02005195,"MEAN_MOTION_DDOT":0},{"OBJECT_NAME":"STARLINK-37081","OBJECT_ID":"2026-053Y","EPOCH":"2026-04-09T21:35:37.052160","MEAN_MOTION":15.75276026,"ECCENTRICITY":0.0001826,"INCLINATION":97.2855,"RA_OF_ASC_NODE":335.7278,"ARG_OF_PERICENTER":108.2609,"MEAN_ANOMALY":251.8855,"EPHEMERIS_TYPE":0,"CLASSIFICATION_TYPE":"U","NORAD_CAT_ID":68229,"ELEMENT_SET_NO":999,"REV_AT_EPOCH":498,"BSTAR":0.0017167,"MEAN_MOTION_DOT":0.00265016,"MEAN_MOTION_DDOT":0},{"OBJECT_NAME":"STARLINK-37100","OBJECT_ID":"2026-053Z","EPOCH":"2026-04-09T20:00:01.999008","MEAN_MOTION":15.69678318,"ECCENTRICITY":0.000172,"INCLINATION":97.2843,"RA_OF_ASC_NODE":335.7291,"ARG_OF_PERICENTER":82.387,"MEAN_ANOMALY":65.9008,"EPHEMERIS_TYPE":0,"CLASSIFICATION_TYPE":"U","NORAD_CAT_ID":68230,"ELEMENT_SET_NO":999,"REV_AT_EPOCH":502,"BSTAR":-0.019183,"MEAN_MOTION_DOT":-0.0200146,"MEAN_MOTION_DDOT":0},{"OBJECT_NAME":"STARLINK-37104","OBJECT_ID":"2026-053AA","EPOCH":"2026-04-09T20:00:01.999008","MEAN_MOTION":15.69649419,"ECCENTRICITY":0.0001826,"INCLINATION":97.2844,"RA_OF_ASC_NODE":335.7308,"ARG_OF_PERICENTER":90.6591,"MEAN_ANOMALY":61.6437,"EPHEMERIS_TYPE":0,"CLASSIFICATION_TYPE":"U","NORAD_CAT_ID":68231,"ELEMENT_SET_NO":999,"REV_AT_EPOCH":502,"BSTAR":-0.019199,"MEAN_MOTION_DOT":-0.02000917,"MEAN_MOTION_DDOT":0},{"OBJECT_NAME":"STARLINK-37027","OBJECT_ID":"2026-054A","EPOCH":"2026-04-09T15:30:51.189984","MEAN_MOTION":15.75269698,"ECCENTRICITY":0.0001148,"INCLINATION":53.1591,"RA_OF_ASC_NODE":157.9994,"ARG_OF_PERICENTER":77.7267,"MEAN_ANOMALY":282.3881,"EPHEMERIS_TYPE":0,"CLASSIFICATION_TYPE":"U","NORAD_CAT_ID":68232,"ELEMENT_SET_NO":999,"REV_AT_EPOCH":366,"BSTAR":0.00082979,"MEAN_MOTION_DOT":0.00128682,"MEAN_MOTION_DDOT":0},{"OBJECT_NAME":"STARLINK-37132","OBJECT_ID":"2026-054B","EPOCH":"2026-04-09T20:36:23.149728","MEAN_MOTION":15.80960932,"ECCENTRICITY":0.0002269,"INCLINATION":53.1572,"RA_OF_ASC_NODE":156.4606,"ARG_OF_PERICENTER":77.2589,"MEAN_ANOMALY":282.8687,"EPHEMERIS_TYPE":0,"CLASSIFICATION_TYPE":"U","NORAD_CAT_ID":68233,"ELEMENT_SET_NO":999,"REV_AT_EPOCH":370,"BSTAR":0.0014968,"MEAN_MOTION_DOT":0.00306703,"MEAN_MOTION_DDOT":0},{"OBJECT_NAME":"STARLINK-37101","OBJECT_ID":"2026-054C","EPOCH":"2026-04-09T15:18:14.702688","MEAN_MOTION":15.7529824,"ECCENTRICITY":0.000137,"INCLINATION":53.1577,"RA_OF_ASC_NODE":157.9404,"ARG_OF_PERICENTER":81.6839,"MEAN_ANOMALY":278.4336,"EPHEMERIS_TYPE":0,"CLASSIFICATION_TYPE":"U","NORAD_CAT_ID":68234,"ELEMENT_SET_NO":999,"REV_AT_EPOCH":366,"BSTAR":0.0011168,"MEAN_MOTION_DOT":0.00174586,"MEAN_MOTION_DDOT":0},{"OBJECT_NAME":"STARLINK-36963","OBJECT_ID":"2026-054D","EPOCH":"2026-04-09T15:24:46.790208","MEAN_MOTION":15.75270504,"ECCENTRICITY":0.0001023,"INCLINATION":53.1588,"RA_OF_ASC_NODE":157.9708,"ARG_OF_PERICENTER":79.1794,"MEAN_ANOMALY":280.9342,"EPHEMERIS_TYPE":0,"CLASSIFICATION_TYPE":"U","NORAD_CAT_ID":68235,"ELEMENT_SET_NO":999,"REV_AT_EPOCH":366,"BSTAR":0.00064224,"MEAN_MOTION_DOT":0.00099104,"MEAN_MOTION_DDOT":0},{"OBJECT_NAME":"STARLINK-37127","OBJECT_ID":"2026-054E","EPOCH":"2026-04-09T15:37:50.989440","MEAN_MOTION":15.75291101,"ECCENTRICITY":0.0001083,"INCLINATION":53.1584,"RA_OF_ASC_NODE":158.0309,"ARG_OF_PERICENTER":73.644,"MEAN_ANOMALY":286.4699,"EPHEMERIS_TYPE":0,"CLASSIFICATION_TYPE":"U","NORAD_CAT_ID":68236,"ELEMENT_SET_NO":999,"REV_AT_EPOCH":366,"BSTAR":0.00093645,"MEAN_MOTION_DOT":0.00145737,"MEAN_MOTION_DDOT":0},{"OBJECT_NAME":"STARLINK-37095","OBJECT_ID":"2026-054F","EPOCH":"2026-04-09T15:31:18.355872","MEAN_MOTION":15.75253519,"ECCENTRICITY":0.0001802,"INCLINATION":53.1594,"RA_OF_ASC_NODE":158.0014,"ARG_OF_PERICENTER":89.2084,"MEAN_ANOMALY":270.9143,"EPHEMERIS_TYPE":0,"CLASSIFICATION_TYPE":"U","NORAD_CAT_ID":68237,"ELEMENT_SET_NO":999,"REV_AT_EPOCH":366,"BSTAR":0.00089154,"MEAN_MOTION_DOT":0.0013837,"MEAN_MOTION_DDOT":0},{"OBJECT_NAME":"STARLINK-37097","OBJECT_ID":"2026-054G","EPOCH":"2026-04-09T20:00:01.999008","MEAN_MOTION":15.75241566,"ECCENTRICITY":8.78e-5,"INCLINATION":53.1589,"RA_OF_ASC_NODE":156.6477,"ARG_OF_PERICENTER":87.2372,"MEAN_ANOMALY":99.6009,"EPHEMERIS_TYPE":0,"CLASSIFICATION_TYPE":"U","NORAD_CAT_ID":68238,"ELEMENT_SET_NO":999,"REV_AT_EPOCH":492,"BSTAR":-0.00026301,"MEAN_MOTION_DOT":-0.00040764,"MEAN_MOTION_DDOT":0},{"OBJECT_NAME":"STARLINK-37096","OBJECT_ID":"2026-054H","EPOCH":"2026-04-09T20:57:05.225760","MEAN_MOTION":15.7530951,"ECCENTRICITY":0.0002372,"INCLINATION":53.1586,"RA_OF_ASC_NODE":156.5562,"ARG_OF_PERICENTER":65.9604,"MEAN_ANOMALY":294.1664,"EPHEMERIS_TYPE":0,"CLASSIFICATION_TYPE":"U","NORAD_CAT_ID":68239,"ELEMENT_SET_NO":999,"REV_AT_EPOCH":370,"BSTAR":0.0017749,"MEAN_MOTION_DOT":0.00281544,"MEAN_MOTION_DDOT":0},{"OBJECT_NAME":"STARLINK-37092","OBJECT_ID":"2026-054J","EPOCH":"2026-04-09T15:04:41.995776","MEAN_MOTION":15.75290859,"ECCENTRICITY":0.00014,"INCLINATION":53.1566,"RA_OF_ASC_NODE":157.8772,"ARG_OF_PERICENTER":69.8413,"MEAN_ANOMALY":290.2758,"EPHEMERIS_TYPE":0,"CLASSIFICATION_TYPE":"U","NORAD_CAT_ID":68240,"ELEMENT_SET_NO":999,"REV_AT_EPOCH":366,"BSTAR":0.0010338,"MEAN_MOTION_DOT":0.00161257,"MEAN_MOTION_DDOT":0},{"OBJECT_NAME":"STARLINK-37094","OBJECT_ID":"2026-054K","EPOCH":"2026-04-09T15:54:37.334304","MEAN_MOTION":15.80961119,"ECCENTRICITY":7.96e-5,"INCLINATION":53.1571,"RA_OF_ASC_NODE":157.3709,"ARG_OF_PERICENTER":93.7195,"MEAN_ANOMALY":266.3918,"EPHEMERIS_TYPE":0,"CLASSIFICATION_TYPE":"U","NORAD_CAT_ID":68241,"ELEMENT_SET_NO":999,"REV_AT_EPOCH":367,"BSTAR":0.0010506,"MEAN_MOTION_DOT":0.00212697,"MEAN_MOTION_DDOT":0},{"OBJECT_NAME":"STARLINK-36356","OBJECT_ID":"2026-054L","EPOCH":"2026-04-09T15:11:13.907904","MEAN_MOTION":15.75302971,"ECCENTRICITY":0.0001083,"INCLINATION":53.1568,"RA_OF_ASC_NODE":157.9069,"ARG_OF_PERICENTER":112.4799,"MEAN_ANOMALY":247.6336,"EPHEMERIS_TYPE":0,"CLASSIFICATION_TYPE":"U","NORAD_CAT_ID":68242,"ELEMENT_SET_NO":999,"REV_AT_EPOCH":366,"BSTAR":0.0011011,"MEAN_MOTION_DOT":0.00172096,"MEAN_MOTION_DDOT":0},{"OBJECT_NAME":"STARLINK-36345","OBJECT_ID":"2026-054M","EPOCH":"2026-04-09T15:24:18.490752","MEAN_MOTION":15.75279275,"ECCENTRICITY":0.00013,"INCLINATION":53.1588,"RA_OF_ASC_NODE":157.9684,"ARG_OF_PERICENTER":80.0595,"MEAN_ANOMALY":280.0572,"EPHEMERIS_TYPE":0,"CLASSIFICATION_TYPE":"U","NORAD_CAT_ID":68243,"ELEMENT_SET_NO":999,"REV_AT_EPOCH":366,"BSTAR":0.00088567,"MEAN_MOTION_DOT":0.00137595,"MEAN_MOTION_DDOT":0}]
